TIANQI-39               
1 67478U 26010C   26027.19018256  .00000255  00000+0  20135-3 0  9995
2 67478  44.9845 351.7145 0010801   8.1268 351.9744 14.14526304  1610
TIANQI-40               
1 67479U 26010D   26027.26070696  .00000299  00000+0  22376-3 0  9997
2 67479  44.9852 351.3920 0011549   4.6560 355.4384 14.14538960  1623
TRANSPORTER-15DT        
1 67483U 25276DT  26027.63799795  .00001961  00000+0  17232-3 0  9996
2 67483  97.5428 103.1783 0010314 240.2537 119.7660 14.97650943  1571
STARLINK-36551          
1 67493U 26012A   26019.01773773 -.00002725  86142-5  00000+0 0  9995
2 67493  43.0100 248.3700 0007700 319.9700  13.3500 16.05267929    16
STARLINK-36396          
1 67494U 26012B   26019.01773773 -.00002725  86142-5  00000+0 0  9996
2 67494  43.0100 248.3700 0007700 319.9700  13.3500 16.05267929    17
STARLINK-36550          
1 67495U 26012C   26019.01773773 -.00002725  86142-5  00000+0 0  9997
2 67495  43.0100 248.3700 0007700 319.9700  13.3500 16.05267929    18
STARLINK-36534          
1 67496U 26012D   26019.01773773 -.00002725  86142-5  00000+0 0  9998
2 67496  43.0100 248.3700 0007700 319.9700  13.3500 16.05267929    19
STARLINK-36555          
1 67497U 26012E   26019.01773773 -.00002725  86142-5  00000+0 0  9999
2 67497  43.0100 248.3700 0007700 319.9700  13.3500 16.05267929    10
STARLINK-36081          
1 67498U 26012F   26019.01773773 -.00002725  86142-5  00000+0 0  9990
2 67498  43.0100 248.3700 0007700 319.9700  13.3500 16.05267929    11
STARLINK-36558          
1 67499U 26012G   26019.01773773 -.00002725  86142-5  00000+0 0  9991
2 67499  43.0100 248.3700 0007700 319.9700  13.3500 16.05267929    12
STARLINK-36557          
1 67500U 26012H   26019.01773773 -.00002725  86142-5  00000+0 0  9994
2 67500  43.0100 248.3700 0007700 319.9700  13.3500 16.05267929    15
STARLINK-36433          
1 67501U 26012J   26019.01773773 -.00002725  86142-5  00000+0 0  9995
2 67501  43.0100 248.3700 0007700 319.9700  13.3500 16.05267929    16
